[{"OBJECT_NAME":"METOP-SGA1","OBJECT_ID":"2025-172A","EPOCH":"2026-03-09T18:22:16.359168","MEAN_MOTION":14.21429454,"ECCENTRICITY":0.0001154,"INCLINATION":98.6757,"RA_OF_ASC_NODE":130.2282,"ARG_OF_PERICENTER":80.674,"MEAN_ANOMALY":279.4568,"EPHEMERIS_TYPE":0,"CLASSIFICATION_TYPE":"U","NORAD_CAT_ID":65159,"ELEMENT_SET_NO":999,"REV_AT_EPOCH":2966,"BSTAR":3.7676115e-5,"MEAN_MOTION_DOT":3.9e-7,"MEAN_MOTION_DDOT":0},{"OBJECT_NAME":"PSLV R\/B","OBJECT_ID":"2011-058E","EPOCH":"2026-03-09T09:52:20.264160","MEAN_MOTION":14.21821468,"ECCENTRICITY":0.00590429,"INCLINATION":19.7938,"RA_OF_ASC_NODE":69.6021,"ARG_OF_PERICENTER":325.0479,"MEAN_ANOMALY":34.6058,"EPHEMERIS_TYPE":0,"CLASSIFICATION_TYPE":"U","NORAD_CAT_ID":37842,"ELEMENT_SET_NO":999,"REV_AT_EPOCH":74933,"BSTAR":9.2033556e-5,"MEAN_MOTION_DOT":4.85e-6,"MEAN_MOTION_DDOT":0}]
